ISS OBJECT XW           
1 66910U 98067XW  26056.45885659  .00098376  00000+0  96792-3 0  9999
2 66910  51.6260 127.7246 0004205  24.4153 335.7041 15.65190954 13263
ISS OBJECT XX           
1 66911U 98067XX  26056.43975155  .00165050  00000+0  13393-2 0  9998
2 66911  51.6225 126.8388 0006372  16.9850 343.1359 15.69668222 13266
ISS OBJECT XY           
1 66912U 98067XY  26056.49327558  .00072438  00000+0  83270-3 0  9992
2 66912  51.6272 128.7157 0002229  29.6142 330.4977 15.61355614 13249
ISS OBJECT XZ           
1 67683U 98067XZ  26056.42335433  .00034181  00000+0  58732-3 0  9990
2 67683  51.6308 132.7483 0009859 145.2647 214.8988 15.50759480  2885
GXIBA-1                 
1 67684U 98067YA  26056.41169787  .00062280  00000+0  10031-2 0  9997
2 67684  51.6310 132.6717 0011314 136.6154 223.5729 15.52283656  2883
CORAL                   
1 67685U 98067YB  26056.42128185  .00038274  00000+0  65018-3 0  9998
2 67685  51.6309 132.7349 0011765 141.4592 218.7239 15.51003889  2883
ISS OBJECT YC           
1 67686U 98067YC  26055.51714998  .00045468  00000+0  76511-3 0  9994
2 67686  51.6312 137.1991 0007729 108.4650 251.7180 15.51233940  2743
LEOPARD                 
1 67687U 98067YD  26056.42216045  .00033503  00000+0  57376-3 0  9991
2 67687  51.6310 132.7414 0007714 114.5604 245.6190 15.50883985  2803
ISS OBJECT YE           
1 67688U 98067YE  26056.41999476  .00042562  00000+0  71855-3 0  9990
2 67688  51.6315 132.7279 0007609 111.7253 248.4547 15.51173026  2806
CREW DRAGON 12          
1 67796U 26031A   26056.18628621  .00010179  00000+0  19739-3 0  9999
2 67796  51.6318 134.1640 0008356 131.0189 229.1523 15.48279367554364
